{
  "type": "FeatureCollection",
  "features": [
    {
      "type": "Feature",
      "properties": {
        "norad_id": 34648,
        "name": "IRIDIUM 33 DEB",
        "group": "iridium-33-debris",
        "lat": 55.5243939207066,
        "lon": -78.57379445736603,
        "alt_km": 969.8545899438695,
        "timestamp": "2025-12-27T02:10:16.574267+00:00",
        "meta_object_name": "IRIDIUM 33 DEB",
        "meta_object_id": "1997-051JZ",
        "meta_epoch": "2025-12-26T17:23:51.360000",
        "meta_mean_motion": 14.11887507,
        "meta_eccentricity": 0.0177886,
        "meta_inclination": 86.3901,
        "meta_ra_of_asc_node": 276.2989,
        "meta_arg_of_pericenter": 254.825,
        "meta_mean_anomaly": 103.3201,
        "meta_ephemeris_type": 0,
        "meta_classification_type": "U",
        "meta_norad_cat_id": 34648,
        "meta_element_set_no": 999,
        "meta_rev_at_epoch": 85158,
        "meta_bstar": 0.0061458,
        "meta_mean_motion_dot": 0.00013057,
        "meta_mean_motion_ddot": 0,
        "tle_line1": "1 34648U 97051JZ  25360.72490000  .00013057  00000+0  61458-2 0  9996",
        "tle_line2": "2 34648  86.3901 276.2989 0177886 254.8250 103.3201 14.11887507851589"
      },
      "geometry": {
        "type": "Point",
        "coordinates": [
          -78.57379445736603,
          55.5243939207066
        ]
      }
    },
    {
      "type": "Feature",
      "properties": {
        "norad_id": 34651,
        "name": "IRIDIUM 33 DEB",
        "group": "iridium-33-debris",
        "lat": 53.67330287259379,
        "lon": -50.60082890391199,
        "alt_km": 713.5165167817313,
        "timestamp": "2025-12-27T02:10:16.574278+00:00",
        "meta_object_name": "IRIDIUM 33 DEB",
        "meta_object_id": "1997-051KC",
        "meta_epoch": "2025-12-25T15:53:57.959232",
        "meta_mean_motion": 14.26027654,
        "meta_eccentricity": 0.0142018,
        "meta_inclination": 86.2827,
        "meta_ra_of_asc_node": 135.0795,
        "meta_arg_of_pericenter": 163.1805,
        "meta_mean_anomaly": 197.4168,
        "meta_ephemeris_type": 0,
        "meta_classification_type": "U",
        "meta_norad_cat_id": 34651,
        "meta_element_set_no": 999,
        "meta_rev_at_epoch": 86080,
        "meta_bstar": 0.0036817,
        "meta_mean_motion_dot": 9.797e-05,
        "meta_mean_motion_ddot": 0,
        "tle_line1": "1 34651U 97051KC  25359.66247638  .00009797  00000+0  36817-2 0  9995",
        "tle_line2": "2 34651  86.2827 135.0795 0142018 163.1805 197.4168 14.26027654860809"
      },
      "geometry": {
        "type": "Point",
        "coordinates": [
          -50.60082890391199,
          53.67330287259379
        ]
      }
    },
    {
      "type": "Feature",
      "properties": {
        "norad_id": 34652,
        "name": "IRIDIUM 33 DEB",
        "group": "iridium-33-debris",
        "lat": -64.7759644588655,
        "lon": 161.43780194774055,
        "alt_km": 675.4621914443733,
        "timestamp": "2025-12-27T02:10:16.574288+00:00",
        "meta_object_name": "IRIDIUM 33 DEB",
        "meta_object_id": "1997-051KD",
        "meta_epoch": "2025-12-25T04:47:40.914240",
        "meta_mean_motion": 14.62168979,
        "meta_eccentricity": 0.0025437,
        "meta_inclination": 86.3321,
        "meta_ra_of_asc_node": 334.4529,
        "meta_arg_of_pericenter": 252.4347,
        "meta_mean_anomaly": 126.6927,
        "meta_ephemeris_type": 0,
        "meta_classification_type": "U",
        "meta_norad_cat_id": 34652,
        "meta_element_set_no": 999,
        "meta_rev_at_epoch": 88666,
        "meta_bstar": 0.0010092,
        "meta_mean_motion_dot": 5.122e-05,
        "meta_mean_motion_ddot": 0,
        "tle_line1": "1 34652U 97051KD  25359.19977910  .00005122  00000+0  10092-2 0  9992",
        "tle_line2": "2 34652  86.3321 334.4529 0025437 252.4347 126.6927 14.62168979886663"
      },
      "geometry": {
        "type": "Point",
        "coordinates": [
          161.43780194774055,
          -64.7759644588655
        ]
      }
    },
    {
      "type": "Feature",
      "properties": {
        "norad_id": 34690,
        "name": "IRIDIUM 33 DEB",
        "group": "iridium-33-debris",
        "lat": 72.84598351916378,
        "lon": -161.09065387053647,
        "alt_km": 705.8261865258946,
        "timestamp": "2025-12-27T02:10:16.574298+00:00",
        "meta_object_name": "IRIDIUM 33 DEB",
        "meta_object_id": "1997-051KM",
        "meta_epoch": "2025-12-26T19:53:36.426912",
        "meta_mean_motion": 14.55146043,
        "meta_eccentricity": 0.0009235,
        "meta_inclination": 86.3773,
        "meta_ra_of_asc_node": 30.867,
        "meta_arg_of_pericenter": 341.6712,
        "meta_mean_anomaly": 195.6004,
        "meta_ephemeris_type": 0,
        "meta_classification_type": "U",
        "meta_norad_cat_id": 34690,
        "meta_element_set_no": 999,
        "meta_rev_at_epoch": 88299,
        "meta_bstar": 0.00044241,
        "meta_mean_motion_dot": 1.932e-05,
        "meta_mean_motion_ddot": 0,
        "tle_line1": "1 34690U 97051KM  25360.82889383  .00001932  00000+0  44241-3 0  9991",
        "tle_line2": "2 34690  86.3773  30.8670 0009235 341.6712 195.6004 14.55146043882999"
      },
      "geometry": {
        "type": "Point",
        "coordinates": [
          -161.09065387053647,
          72.84598351916378
        ]
      }
    },
    {
      "type": "Feature",
      "properties": {
        "norad_id": 34693,
        "name": "IRIDIUM 33 DEB",
        "group": "iridium-33-debris",
        "lat": 40.53556157637681,
        "lon": -60.15466936637375,
        "alt_km": 461.88536570814995,
        "timestamp": "2025-12-27T02:10:16.574309+00:00",
        "meta_object_name": "IRIDIUM 33 DEB",
        "meta_object_id": "1997-051KQ",
        "meta_epoch": "2025-12-26T19:48:57.227904",
        "meta_mean_motion": 15.31583943,
        "meta_eccentricity": 0.0008843,
        "meta_inclination": 86.3049,
        "meta_ra_of_asc_node": 296.8095,
        "meta_arg_of_pericenter": 29.7643,
        "meta_mean_anomaly": 351.8395,
        "meta_ephemeris_type": 0,
        "meta_classification_type": "U",
        "meta_norad_cat_id": 34693,
        "meta_element_set_no": 999,
        "meta_rev_at_epoch": 89130,
        "meta_bstar": 0.0050569,
        "meta_mean_motion_dot": 0.00157281,
        "meta_mean_motion_ddot": 0,
        "tle_line1": "1 34693U 97051KQ  25360.82566236  .00157281  00000+0  50569-2 0  9991",
        "tle_line2": "2 34693  86.3049 296.8095 0008843  29.7643 351.8395 15.31583943891307"
      },
      "geometry": {
        "type": "Point",
        "coordinates": [
          -60.15466936637375,
          40.53556157637681
        ]
      }
    },
    {
      "type": "Feature",
      "properties": {
        "norad_id": 34696,
        "name": "IRIDIUM 33 DEB",
        "group": "iridium-33-debris",
        "lat": 56.12533656377515,
        "lon": 26.546997693900412,
        "alt_km": 645.2735353271519,
        "timestamp": "2025-12-27T02:10:16.574319+00:00",
        "meta_object_name": "IRIDIUM 33 DEB",
        "meta_object_id": "1997-051KT",
        "meta_epoch": "2025-12-26T01:36:24.067008",
        "meta_mean_motion": 14.65708991,
        "meta_eccentricity": 0.00738933,
        "meta_inclination": 86.1852,
        "meta_ra_of_asc_node": 21.3194,
        "meta_arg_of_pericenter": 122.6811,
        "meta_mean_anomaly": 297.1917,
        "meta_ephemeris_type": 0,
        "meta_classification_type": "U",
        "meta_norad_cat_id": 34696,
        "meta_element_set_no": 999,
        "meta_rev_at_epoch": 86868,
        "meta_bstar": 0.0037727771,
        "meta_mean_motion_dot": 0.00021447,
        "meta_mean_motion_ddot": 0,
        "tle_line1": "1 34696U 97051KT  25360.06694522  .00021447  00000+0  37728-2 0  9996",
        "tle_line2": "2 34696  86.1852  21.3194 0073893 122.6811 297.1917 14.65708991868683"
      },
      "geometry": {
        "type": "Point",
        "coordinates": [
          26.546997693900412,
          56.12533656377515
        ]
      }
    },
    {
      "type": "Feature",
      "properties": {
        "norad_id": 34765,
        "name": "IRIDIUM 33 DEB",
        "group": "iridium-33-debris",
        "lat": 79.25196774793343,
        "lon": -173.11658887885804,
        "alt_km": 744.1803761928604,
        "timestamp": "2025-12-27T02:10:16.574330+00:00",
        "meta_object_name": "IRIDIUM 33 DEB",
        "meta_object_id": "1997-051LJ",
        "meta_epoch": "2025-12-26T19:51:29.882016",
        "meta_mean_motion": 14.40499784,
        "meta_eccentricity": 0.001698,
        "meta_inclination": 86.3378,
        "meta_ra_of_asc_node": 26.7151,
        "meta_arg_of_pericenter": 164.5853,
        "meta_mean_anomaly": 12.4724,
        "meta_ephemeris_type": 0,
        "meta_classification_type": "U",
        "meta_norad_cat_id": 34765,
        "meta_element_set_no": 999,
        "meta_rev_at_epoch": 87816,
        "meta_bstar": 0.00040051,
        "meta_mean_motion_dot": 1.295e-05,
        "meta_mean_motion_ddot": 0,
        "tle_line1": "1 34765U 97051LJ  25360.82742919  .00001295  00000+0  40051-3 0  9994",
        "tle_line2": "2 34765  86.3378  26.7151 0016980 164.5853  12.4724 14.40499784878160"
      },
      "geometry": {
        "type": "Point",
        "coordinates": [
          -173.11658887885804,
          79.25196774793343
        ]
      }
    }
  ]
}